DELTA 2 R/B(1)          
1 20453U 90008B   26047.05097093  .00071954  00000+0  92905-3 0  9996
2 20453  35.6054 316.5284 0090516  56.5081 304.4266 15.52946842922761
COSMOS 2058             
1 20465U 90010A   26047.12867182  .00004769  00000+0  28265-3 0  9992
2 20465  82.4654  68.6690 0011275  56.3641 303.8663 15.11118989938984
SL-14 R/B               
1 20466U 90010B   26047.17131510  .00000456  00000+0  52341-4 0  9999
2 20466  82.5016 287.6040 0020245  15.2057 344.9762 14.83550220925294
SL-14 R/B               
1 20511U 90018B   26047.03335850  .00000501  00000+0  59844-4 0  9992
2 20511  82.5179 243.3353 0016791 158.6212 201.5708 14.82121096919371
HST                     
1 20580U 90037B   26046.42870875  .00007835  00000+0  26144-3 0  9995
2 20580  28.4670 191.8156 0001372 214.5807 145.4700 15.29117043769900
SL-16 R/B               
1 20625U 90046B   26047.13621948  .00000331  00000+0  19535-3 0  9999
2 20625  71.0014 343.1781 0015180 329.7098  30.3146 14.15011174845346
COSMOS 2084             
1 20663U 90055A   26047.13616622  .00003019  00000+0  22198-3 0  9999
2 20663  62.7898  49.0806 0020404 185.2715 174.8174 15.05506408933073
SL-6 R/B(2)             
1 20666U 90055D   26047.15611762  .00002701  00000+0  21080-3 0  9990
2 20666  62.7846 327.0729 0021512 341.1837  18.8465 15.03485742934954
SL-8 R/B                
1 20775U 90078B   26047.06699715  .00015808  00000+0  46407-3 0  9992
2 20775  82.9010 270.7464 0366348  86.4739 277.8297 14.88329794806089
SL-8 R/B                
1 21088U 91006B   26046.84321998  .00000021  00000+0  55143-5 0  9992
2 21088  82.9444 186.2866 0023759  96.5419  13.6108 13.77492320761066
OKEAN-3                 
1 21397U 91039A   26046.93370839  .00004830  00000+0  34098-3 0  9995
2 21397  82.5190 357.9127 0016017  48.5610 311.6990 15.04631733861762
COSMOS 2151             
1 21422U 91042A   26047.13737042  .00001695  00000+0  13388-3 0  9999
2 21422  82.4952 104.4684 0013767 128.4867 231.7594 15.00021703859967
