CCSDS_OMM_VERS = 2.0
CREATION_DATE  = 
ORIGINATOR     = 

OBJECT_NAME    = DELTA 2 R/B(1)
OBJECT_ID      = 1990-008B
CENTER_NAME    = EARTH
REF_FRAME      = TEME
TIME_SYSTEM    = UTC
MEAN_ELEMENT_THEORY = SGP/SGP4

EPOCH          = 2026-02-16T01:13:23.888352
MEAN_MOTION    = 15.52946842
ECCENTRICITY   = .0090516
INCLINATION    = 35.6054
RA_OF_ASC_NODE = 316.5284
ARG_OF_PERICENTER = 56.5081
MEAN_ANOMALY   = 304.4266

EPHEMERIS_TYPE = 0
CLASSIFICATION_TYPE = U
NORAD_CAT_ID   = 20453
ELEMENT_SET_NO = 999
REV_AT_EPOCH   = 92276
BSTAR          = .92905E-3
MEAN_MOTION_DOT = .71954E-3
MEAN_MOTION_DDOT = 0

CCSDS_OMM_VERS = 2.0
CREATION_DATE  = 
ORIGINATOR     = 

OBJECT_NAME    = COSMOS 2058
OBJECT_ID      = 1990-010A
CENTER_NAME    = EARTH
REF_FRAME      = TEME
TIME_SYSTEM    = UTC
MEAN_ELEMENT_THEORY = SGP/SGP4

EPOCH          = 2026-02-16T03:05:17.245248
MEAN_MOTION    = 15.11118989
ECCENTRICITY   = .0011275
INCLINATION    = 82.4654
RA_OF_ASC_NODE = 68.6690
ARG_OF_PERICENTER = 56.3641
MEAN_ANOMALY   = 303.8663

EPHEMERIS_TYPE = 0
CLASSIFICATION_TYPE = U
NORAD_CAT_ID   = 20465
ELEMENT_SET_NO = 999
REV_AT_EPOCH   = 93898
BSTAR          = .28265E-3
MEAN_MOTION_DOT = .4769E-4
MEAN_MOTION_DDOT = 0

CCSDS_OMM_VERS = 2.0
CREATION_DATE  = 
ORIGINATOR     = 

OBJECT_NAME    = SL-14 R/B
OBJECT_ID      = 1990-010B
CENTER_NAME    = EARTH
REF_FRAME      = TEME
TIME_SYSTEM    = UTC
MEAN_ELEMENT_THEORY = SGP/SGP4

EPOCH          = 2026-02-16T04:06:41.624640
MEAN_MOTION    = 14.83550220
ECCENTRICITY   = .0020245
INCLINATION    = 82.5016
RA_OF_ASC_NODE = 287.6040
ARG_OF_PERICENTER = 15.2057
MEAN_ANOMALY   = 344.9762

EPHEMERIS_TYPE = 0
CLASSIFICATION_TYPE = U
NORAD_CAT_ID   = 20466
ELEMENT_SET_NO = 999
REV_AT_EPOCH   = 92529
BSTAR          = .52341E-4
MEAN_MOTION_DOT = .456E-5
MEAN_MOTION_DDOT = 0

CCSDS_OMM_VERS = 2.0
CREATION_DATE  = 
ORIGINATOR     = 

OBJECT_NAME    = SL-14 R/B
OBJECT_ID      = 1990-018B
CENTER_NAME    = EARTH
REF_FRAME      = TEME
TIME_SYSTEM    = UTC
MEAN_ELEMENT_THEORY = SGP/SGP4

EPOCH          = 2026-02-16T00:48:02.174400
MEAN_MOTION    = 14.82121096
ECCENTRICITY   = .0016791
INCLINATION    = 82.5179
RA_OF_ASC_NODE = 243.3353
ARG_OF_PERICENTER = 158.6212
MEAN_ANOMALY   = 201.5708

EPHEMERIS_TYPE = 0
CLASSIFICATION_TYPE = U
NORAD_CAT_ID   = 20511
ELEMENT_SET_NO = 999
REV_AT_EPOCH   = 91937
BSTAR          = .59844E-4
MEAN_MOTION_DOT = .501E-5
MEAN_MOTION_DDOT = 0

CCSDS_OMM_VERS = 2.0
CREATION_DATE  = 
ORIGINATOR     = 

OBJECT_NAME    = HST
OBJECT_ID      = 1990-037B
CENTER_NAME    = EARTH
REF_FRAME      = TEME
TIME_SYSTEM    = UTC
MEAN_ELEMENT_THEORY = SGP/SGP4

EPOCH          = 2026-02-15T10:17:20.436000
MEAN_MOTION    = 15.29117043
ECCENTRICITY   = .0001372
INCLINATION    = 28.4670
RA_OF_ASC_NODE = 191.8156
ARG_OF_PERICENTER = 214.5807
MEAN_ANOMALY   = 145.4700

EPHEMERIS_TYPE = 0
CLASSIFICATION_TYPE = U
NORAD_CAT_ID   = 20580
ELEMENT_SET_NO = 999
REV_AT_EPOCH   = 76990
BSTAR          = .26144E-3
MEAN_MOTION_DOT = .7835E-4
MEAN_MOTION_DDOT = 0

CCSDS_OMM_VERS = 2.0
CREATION_DATE  = 
ORIGINATOR     = 

OBJECT_NAME    = SL-16 R/B
OBJECT_ID      = 1990-046B
CENTER_NAME    = EARTH
REF_FRAME      = TEME
TIME_SYSTEM    = UTC
MEAN_ELEMENT_THEORY = SGP/SGP4

EPOCH          = 2026-02-16T03:16:09.363072
MEAN_MOTION    = 14.15011174
ECCENTRICITY   = .001518
INCLINATION    = 71.0014
RA_OF_ASC_NODE = 343.1781
ARG_OF_PERICENTER = 329.7098
MEAN_ANOMALY   = 30.3146

EPHEMERIS_TYPE = 0
CLASSIFICATION_TYPE = U
NORAD_CAT_ID   = 20625
ELEMENT_SET_NO = 999
REV_AT_EPOCH   = 84534
BSTAR          = .19535E-3
MEAN_MOTION_DOT = .331E-5
MEAN_MOTION_DDOT = 0

CCSDS_OMM_VERS = 2.0
CREATION_DATE  = 
ORIGINATOR     = 

OBJECT_NAME    = COSMOS 2084
OBJECT_ID      = 1990-055A
CENTER_NAME    = EARTH
REF_FRAME      = TEME
TIME_SYSTEM    = UTC
MEAN_ELEMENT_THEORY = SGP/SGP4

EPOCH          = 2026-02-16T03:16:04.761408
MEAN_MOTION    = 15.05506408
ECCENTRICITY   = .0020404
INCLINATION    = 62.7898
RA_OF_ASC_NODE = 49.0806
ARG_OF_PERICENTER = 185.2715
MEAN_ANOMALY   = 174.8174

EPHEMERIS_TYPE = 0
CLASSIFICATION_TYPE = U
NORAD_CAT_ID   = 20663
ELEMENT_SET_NO = 999
REV_AT_EPOCH   = 93307
BSTAR          = .22198E-3
MEAN_MOTION_DOT = .3019E-4
MEAN_MOTION_DDOT = 0

CCSDS_OMM_VERS = 2.0
CREATION_DATE  = 
ORIGINATOR     = 

OBJECT_NAME    = SL-6 R/B(2)
OBJECT_ID      = 1990-055D
CENTER_NAME    = EARTH
REF_FRAME      = TEME
TIME_SYSTEM    = UTC
MEAN_ELEMENT_THEORY = SGP/SGP4

EPOCH          = 2026-02-16T03:44:48.562368
MEAN_MOTION    = 15.03485742
ECCENTRICITY   = .0021512
INCLINATION    = 62.7846
RA_OF_ASC_NODE = 327.0729
ARG_OF_PERICENTER = 341.1837
MEAN_ANOMALY   = 18.8465

EPHEMERIS_TYPE = 0
CLASSIFICATION_TYPE = U
NORAD_CAT_ID   = 20666
ELEMENT_SET_NO = 999
REV_AT_EPOCH   = 93495
BSTAR          = .2108E-3
MEAN_MOTION_DOT = .2701E-4
MEAN_MOTION_DDOT = 0

CCSDS_OMM_VERS = 2.0
CREATION_DATE  = 
ORIGINATOR     = 

OBJECT_NAME    = SL-8 R/B
OBJECT_ID      = 1990-078B
CENTER_NAME    = EARTH
REF_FRAME      = TEME
TIME_SYSTEM    = UTC
MEAN_ELEMENT_THEORY = SGP/SGP4

EPOCH          = 2026-02-16T01:36:28.553760
MEAN_MOTION    = 14.88329794
ECCENTRICITY   = .0366348
INCLINATION    = 82.9010
RA_OF_ASC_NODE = 270.7464
ARG_OF_PERICENTER = 86.4739
MEAN_ANOMALY   = 277.8297

EPHEMERIS_TYPE = 0
CLASSIFICATION_TYPE = U
NORAD_CAT_ID   = 20775
ELEMENT_SET_NO = 999
REV_AT_EPOCH   = 80608
BSTAR          = .46407E-3
MEAN_MOTION_DOT = .15808E-3
MEAN_MOTION_DDOT = 0

CCSDS_OMM_VERS = 2.0
CREATION_DATE  = 
ORIGINATOR     = 

OBJECT_NAME    = SL-8 R/B
OBJECT_ID      = 1991-006B
CENTER_NAME    = EARTH
REF_FRAME      = TEME
TIME_SYSTEM    = UTC
MEAN_ELEMENT_THEORY = SGP/SGP4

EPOCH          = 2026-02-15T20:14:14.206272
MEAN_MOTION    = 13.77492320
ECCENTRICITY   = .0023759
INCLINATION    = 82.9444
RA_OF_ASC_NODE = 186.2866
ARG_OF_PERICENTER = 96.5419
MEAN_ANOMALY   = 13.6108

EPHEMERIS_TYPE = 0
CLASSIFICATION_TYPE = U
NORAD_CAT_ID   = 21088
ELEMENT_SET_NO = 999
REV_AT_EPOCH   = 76106
BSTAR          = .55143E-5
MEAN_MOTION_DOT = .21E-6
MEAN_MOTION_DDOT = 0

CCSDS_OMM_VERS = 2.0
CREATION_DATE  = 
ORIGINATOR     = 

OBJECT_NAME    = OKEAN-3
OBJECT_ID      = 1991-039A
CENTER_NAME    = EARTH
REF_FRAME      = TEME
TIME_SYSTEM    = UTC
MEAN_ELEMENT_THEORY = SGP/SGP4

EPOCH          = 2026-02-15T22:24:32.404896
MEAN_MOTION    = 15.04631733
ECCENTRICITY   = .0016017
INCLINATION    = 82.5190
RA_OF_ASC_NODE = 357.9127
ARG_OF_PERICENTER = 48.5610
MEAN_ANOMALY   = 311.6990

EPHEMERIS_TYPE = 0
CLASSIFICATION_TYPE = U
NORAD_CAT_ID   = 21397
ELEMENT_SET_NO = 999
REV_AT_EPOCH   = 86176
BSTAR          = .34098E-3
MEAN_MOTION_DOT = .483E-4
MEAN_MOTION_DDOT = 0

CCSDS_OMM_VERS = 2.0
CREATION_DATE  = 
ORIGINATOR     = 

OBJECT_NAME    = COSMOS 2151
OBJECT_ID      = 1991-042A
CENTER_NAME    = EARTH
REF_FRAME      = TEME
TIME_SYSTEM    = UTC
MEAN_ELEMENT_THEORY = SGP/SGP4

EPOCH          = 2026-02-16T03:17:48.804288
MEAN_MOTION    = 15.00021703
ECCENTRICITY   = .0013767
INCLINATION    = 82.4952
RA_OF_ASC_NODE = 104.4684
ARG_OF_PERICENTER = 128.4867
MEAN_ANOMALY   = 231.7594

EPHEMERIS_TYPE = 0
CLASSIFICATION_TYPE = U
NORAD_CAT_ID   = 21422
ELEMENT_SET_NO = 999
REV_AT_EPOCH   = 85996
BSTAR          = .13388E-3
MEAN_MOTION_DOT = .1695E-4
MEAN_MOTION_DDOT = 0

